[{"OBJECT_NAME":"STARLINK-3813","OBJECT_ID":"2022-049AH","EPOCH":"2026-03-09T04:14:08.384352","MEAN_MOTION":15.08838651,"ECCENTRICITY":0.00013729,"INCLINATION":53.2177,"RA_OF_ASC_NODE":51.4238,"ARG_OF_PERICENTER":91.1282,"MEAN_ANOMALY":268.9867,"EPHEMERIS_TYPE":0,"CLASSIFICATION_TYPE":"U","NORAD_CAT_ID":52482,"ELEMENT_SET_NO":999,"REV_AT_EPOCH":21231,"BSTAR":3.372545e-5,"MEAN_MOTION_DOT":2.49e-6,"MEAN_MOTION_DDOT":0},{"OBJECT_NAME":"OBJECT G","OBJECT_ID":"2024-128G","EPOCH":"2026-03-09T22:09:32.997312","MEAN_MOTION":15.06569427,"ECCENTRICITY":0.00508438,"INCLINATION":61.9901,"RA_OF_ASC_NODE":202.8444,"ARG_OF_PERICENTER":113.9294,"MEAN_ANOMALY":246.7137,"EPHEMERIS_TYPE":0,"CLASSIFICATION_TYPE":"U","NORAD_CAT_ID":60241,"ELEMENT_SET_NO":999,"REV_AT_EPOCH":9135,"BSTAR":0.00049882926,"MEAN_MOTION_DOT":7.427e-5,"MEAN_MOTION_DDOT":0}]
